STARLINK-2531_new
1 18483C 21040BH  21326.15869773 -.00008148  00000-0 -54612-3 0  3262
2 18483  53.0562  43.0216 0001441  71.6789 174.2923 15.06396231    19
STARLINK-2531_old
1 28483C 21040BH  21325.12847073  .00006697  00000-0  44874-3 0  3250
2 28483  53.0564  47.6461 0001402  70.9624 344.9525 15.06391742    16
